OBJECT_NAME,OBJECT_ID,EPOCH,MEAN_MOTION,ECCENTRICITY,INCLINATION,RA_OF_ASC_NODE,ARG_OF_PERICENTER,MEAN_ANOMALY,EPHEMERIS_TYPE,CLASSIFICATION_TYPE,NORAD_CAT_ID,ELEMENT_SET_NO,REV_AT_EPOCH,BSTAR,MEAN_MOTION_DOT,MEAN_MOTION_DDOT
LEMUR-2-ROUNDTRIPPER,2025-009DG,2026-06-17T23:00:38.637792,15.03803585,.00054458,97.7255,251.6369,128.2572,231.9144,0,U,62711,999,7774,.53141109E-3,.7247E-4,0
LEMUR-2-MYNAMEISJEFF,2025-009DH,2026-06-17T21:22:31.867968,15.03808505,.00036646,97.7302,251.9503,149.2779,210.8662,0,U,62712,999,7773,.50378003E-3,.6867E-4,0
LEMUR-2-LEIA-PHILIP,2025-052AN,2026-06-17T16:06:26.531424,14.97320431,.00026073,97.6839,60.6142,208.3934,151.7147,0,U,63246,999,6874,.60622787E-4,.646E-5,0
LEMUR-2-LIA-MARTIN,2025-052AQ,2026-06-17T22:38:18.146112,14.97808124,.00029496,97.6891,61.3581,155.6525,204.4837,0,U,63248,999,6879,.25056017E-3,.2886E-4,0
LEMUR-2-DELOITTE-1,2025-052BB,2026-06-17T15:39:35.911008,14.97607945,.00034286,97.6921,61.3999,96.1635,263.9978,0,U,63259,999,6876,.32929559E-3,.3792E-4,0
LEMUR-2-EMERSONROSE,2025-052BD,2026-06-17T15:03:11.179008,14.99081964,.00017494,97.6883,61.9349,68.0009,292.1400,0,U,63261,999,6880,.24364992E-3,.29E-4,0
LEMUR-2-MARACHE-FRAN,2025-052BE,2026-06-17T22:27:29.403936,15.00108576,.0005292,97.6939,62.5574,20.2899,339.8534,0,U,63262,999,6887,.34655603E-3,.4264E-4,0
LEMUR-2-THEFALCONER,2025-052BG,2026-06-17T22:42:34.855200,14.97392645,.00025555,97.6858,61.3093,31.4057,328.7317,0,U,63264,999,6880,.21180354E-3,.2404E-4,0
LEMUR-2-UNTITLED-SC,2025-061A,2026-06-17T21:10:11.535744,15.13481060,.00169338,97.5636,144.2387,261.8675,98.0635,0,U,63351,999,6769,.19566442E-3,.3445E-4,0
LEMUR-2-ESPERANZA,2025-061B,2026-06-17T20:37:12.267264,15.13574955,.00164872,97.5646,144.3097,261.2519,98.6845,0,U,63352,999,6769,.1682754E-3,.2961E-4,0
LEMUR-2-KREMPEL-BRO2,2025-061C,2026-06-17T21:15:46.385856,15.14010563,.00175335,97.5690,144.8703,252.9012,107.0299,0,U,63353,999,6771,.19970074E-3,.3571E-4,0
LEMUR-2-THERMORAPTOR,2025-061D,2026-06-17T20:49:53.852160,15.14091452,.00172087,97.5697,144.9284,251.6410,108.2950,0,U,63354,999,6771,.19453366E-3,.3485E-4,0
LEMUR-2-NEUROSPICY,2025-061E,2026-06-17T20:09:01.960128,15.14205403,.00150389,97.5624,144.5258,255.6546,104.3016,0,U,63355,999,6771,.16678457E-3,.2985E-4,0
LEMUR-2-TILLINFINITY,2025-061F,2026-06-17T20:59:27.016800,15.14792061,.00163963,97.5607,144.8515,242.2346,117.7224,0,U,63356,999,6774,.20081108E-3,.3671E-4,0
LEMUR-2-KREMPEL-BRO1,2025-061G,2026-06-17T21:56:30.533856,15.14596994,.0016996,97.5610,144.8068,243.6680,116.2807,0,U,63357,999,6774,.15224373E-3,.2752E-4,0
LEMUR-2-LANGER2SPACE,2025-061H,2026-06-17T20:59:43.980576,15.14294185,.00149639,97.5615,144.5814,253.6681,106.2905,0,U,63358,999,6772,.20336358E-3,.3664E-4,0
LEMUR-2-BALTO,2025-052BH,2026-06-17T15:41:14.274816,15.00091660,.00069055,97.6897,62.2564,56.5220,303.6663,0,U,63395,999,6883,.40030664E-3,.4934E-4,0
LEMUR-2-KRISH,2025-135AK,2026-06-17T21:02:42.086400,14.96215808,.00017541,97.7756,283.7481,98.5776,261.5644,0,U,64561,999,5402,.40376914E-3,.4496E-4,0
LEMUR-2-HUBBLE-4,2025-135AP,2026-06-17T20:57:51.173280,14.93200010,.00009343,97.7701,282.7710,302.5543,57.5586,0,U,64565,999,5397,.13705604E-3,.1375E-4,0
LEMUR-2-SEJONG-2,2025-135BL,2026-06-17T21:45:32.304096,14.96700809,.00037789,97.7688,283.9223,335.7365,24.3677,0,U,64586,999,5405,.29595802E-3,.3322E-4,0
LEMUR-2-HUBBLE-5,2025-135BT,2026-06-17T19:51:05.207904,14.94137476,.00050435,97.7720,283.3603,351.7401,8.3735,0,U,64840,999,5400,.91420205E-4,.921E-5,0
LEMUR-2-KARENDARRELL,2025-135BU,2026-06-17T22:02:48.470784,15.00119646,.00097341,97.7684,285.1251,199.1946,160.8912,0,U,64841,999,5412,.52661889E-3,.6517E-4,0
LEMUR-2-LUCILLE-ROSE,2025-135BV,2026-06-17T21:24:54.951552,15.00162009,.00112541,97.7766,285.1194,280.4634,79.5321,0,U,65403,999,4874,.43922536E-3,.5432E-4,0
LEMUR-2-AFFIE-WAUWIE,2025-248C,2026-06-16T03:21:25.708032,15.27115158,.00075209,45.3895,120.6606,77.2231,282.9498,0,U,66295,999,3443,.50637182E-3,.13448E-3,0
LEMUR-2-DEANANDMAEVE,2025-276N,2026-06-17T18:36:49.853664,15.19739115,.0005656,97.4209,242.2414,12.7375,347.4002,0,U,66678,999,3050,.24250575E-3,.5118E-4,0
LEMUR-2-STAS-GORBUK,2025-276W,2026-06-17T18:57:54.825696,15.19387090,.00050238,97.4244,242.3109,13.5720,346.5649,0,U,66686,999,3050,.21197093E-3,.4418E-4,0
LEMUR-2-TEODOR,2025-276DG,2026-06-17T18:33:36.620064,15.21055353,.00021489,97.4151,242.5312,116.3493,243.7963,0,U,66768,999,3053,.20732935E-3,.4536E-4,0
LEMUR-2-LAILA,2025-276DQ,2026-06-17T17:55:55.613280,15.21277167,.00022602,97.4173,242.6265,135.0689,225.0730,0,U,66776,999,3053,.22919859E-3,.5055E-4,0
LEMUR-2-CELIJO-SB-PK,2025-276DW,2026-06-17T18:29:20.138208,14.99982019,.000873,97.5250,239.5293,131.4945,228.7030,0,U,66781,999,2271,.40073816E-3,.4928E-4,0
